ELECTRON R/B            
1 67229U 25307B   26010.97959397  .00871721  27872-3  17215-2 0  9993
2 67229  41.9932 357.8319 0160960  27.4013 333.5219 15.79976636  3245
ELECTRON KICK STAGE R/B 
1 67230U 25307C   26011.01337837  .02043870  79907-5  20016-2 0  9999
2 67230  42.0000 356.3393 0114718  62.0097 299.2317 15.98095794  1667
SPACEMOBILE-006         
1 67232U 25309A   26011.29311360  .00000639  00000+0  46882-4 0  9993
2 67232  52.9983 329.7938 0011715  18.5045 341.6372 15.17732604  2764
LVM3 R/B                
1 67233U 25309B   26011.27194380  .00008516  00000+0  40862-3 0  9996
2 67233  52.9272 329.4531 0011417  43.9694 316.2206 15.19631726  2762
2025-310A               
1 67234U 25310A   26007.67109269  .00000036  00000+0  12565-4 0  9999
2 67234  97.9664  17.2888 0001429 204.5799 155.5342 14.75713796  1951
SL-4 R/B                
1 67235U 25310B   26011.28087807  .00319195  23705-5  65395-3 0  9995
2 67235  97.9664  22.6251 0275043  16.4122 344.5818 15.57161521  2594
HULIANWANG DIGUI-128    
1 67236U 25311A   26011.24952590  .00000007  00000+0  12304-3 0  9991
2 67236  50.0103 330.8889 0006548 331.4624  28.5916 13.90209807  2271
HULIANWANG DIGUI-129    
1 67237U 25311B   26011.25068323 -.00000005  00000+0  11358-3 0  9992
2 67237  50.0092 330.8926 0007791 333.0873  26.9620 13.90166108  2276
HULIANWANG DIGUI-130    
1 67238U 25311C   26011.25747617  .00000013  00000+0  12820-3 0  9996
2 67238  50.0072 330.9233 0007771 310.3934  49.6285 13.90217709  2274
HULIANWANG DIGUI-131    
1 67239U 25311D   26011.26054651  .00000013  00000+0  12792-3 0  9995
2 67239  50.0068 330.9381 0009369 317.8971  42.1207 13.90204730  2274
HULIANWANG DIGUI-132    
1 67240U 25311E   26011.18255127 -.00000003  00000+0  11526-3 0  9993
2 67240  50.0080 331.1954 0008452 324.2996  35.7337 13.90230600  2266
HULIANWANG DIGUI-133    
1 67241U 25311F   26011.32443530  .00000009  00000+0  12478-3 0  9999
2 67241  50.0124 330.6232 0007567 328.8793  31.1657 13.90208636  2281
