CCSDS_OMM_VERS = 2.0
CREATION_DATE  = 
ORIGINATOR     = 

OBJECT_NAME    = ELECTRON R/B
OBJECT_ID      = 2025-307B
CENTER_NAME    = EARTH
REF_FRAME      = TEME
TIME_SYSTEM    = UTC
MEAN_ELEMENT_THEORY = SGP/SGP4

EPOCH          = 2026-01-10T23:30:36.919008
MEAN_MOTION    = 15.79976636
ECCENTRICITY   = .01609606
INCLINATION    = 41.9932
RA_OF_ASC_NODE = 357.8319
ARG_OF_PERICENTER = 27.4013
MEAN_ANOMALY   = 333.5219

EPHEMERIS_TYPE = 0
CLASSIFICATION_TYPE = U
NORAD_CAT_ID   = 67229
ELEMENT_SET_NO = 999
REV_AT_EPOCH   = 324
BSTAR          = .17215099E-2
MEAN_MOTION_DOT = .871721E-2
MEAN_MOTION_DDOT = .27872049E-3

CCSDS_OMM_VERS = 2.0
CREATION_DATE  = 
ORIGINATOR     = 

OBJECT_NAME    = ELECTRON KICK STAGE R/B
OBJECT_ID      = 2025-307C
CENTER_NAME    = EARTH
REF_FRAME      = TEME
TIME_SYSTEM    = UTC
MEAN_ELEMENT_THEORY = SGP/SGP4

EPOCH          = 2026-01-11T00:19:15.891168
MEAN_MOTION    = 15.98095794
ECCENTRICITY   = .0114718
INCLINATION    = 42.0000
RA_OF_ASC_NODE = 356.3393
ARG_OF_PERICENTER = 62.0097
MEAN_ANOMALY   = 299.2317

EPHEMERIS_TYPE = 0
CLASSIFICATION_TYPE = U
NORAD_CAT_ID   = 67230
ELEMENT_SET_NO = 999
REV_AT_EPOCH   = 166
BSTAR          = .20016E-2
MEAN_MOTION_DOT = .204387E-1
MEAN_MOTION_DDOT = .79907E-5

CCSDS_OMM_VERS = 2.0
CREATION_DATE  = 
ORIGINATOR     = 

OBJECT_NAME    = SPACEMOBILE-006
OBJECT_ID      = 2025-309A
CENTER_NAME    = EARTH
REF_FRAME      = TEME
TIME_SYSTEM    = UTC
MEAN_ELEMENT_THEORY = SGP/SGP4

EPOCH          = 2026-01-11T07:02:05.015040
MEAN_MOTION    = 15.17732604
ECCENTRICITY   = .00117156
INCLINATION    = 52.9983
RA_OF_ASC_NODE = 329.7938
ARG_OF_PERICENTER = 18.5045
MEAN_ANOMALY   = 341.6372

EPHEMERIS_TYPE = 0
CLASSIFICATION_TYPE = U
NORAD_CAT_ID   = 67232
ELEMENT_SET_NO = 999
REV_AT_EPOCH   = 276
BSTAR          = .46882443E-4
MEAN_MOTION_DOT = .639E-5
MEAN_MOTION_DDOT = 0

CCSDS_OMM_VERS = 2.0
CREATION_DATE  = 
ORIGINATOR     = 

OBJECT_NAME    = LVM3 R/B
OBJECT_ID      = 2025-309B
CENTER_NAME    = EARTH
REF_FRAME      = TEME
TIME_SYSTEM    = UTC
MEAN_ELEMENT_THEORY = SGP/SGP4

EPOCH          = 2026-01-11T06:31:35.944320
MEAN_MOTION    = 15.19631726
ECCENTRICITY   = .00114172
INCLINATION    = 52.9272
RA_OF_ASC_NODE = 329.4531
ARG_OF_PERICENTER = 43.9694
MEAN_ANOMALY   = 316.2206

EPHEMERIS_TYPE = 0
CLASSIFICATION_TYPE = U
NORAD_CAT_ID   = 67233
ELEMENT_SET_NO = 999
REV_AT_EPOCH   = 276
BSTAR          = .40862485E-3
MEAN_MOTION_DOT = .8516E-4
MEAN_MOTION_DDOT = 0

CCSDS_OMM_VERS = 2.0
CREATION_DATE  = 
ORIGINATOR     = 

OBJECT_NAME    = 2025-310A
OBJECT_ID      = 2025-310A
CENTER_NAME    = EARTH
REF_FRAME      = TEME
TIME_SYSTEM    = UTC
MEAN_ELEMENT_THEORY = SGP/SGP4

EPOCH          = 2026-01-07T16:06:22.408416
MEAN_MOTION    = 14.75713796
ECCENTRICITY   = .00014299
INCLINATION    = 97.9664
RA_OF_ASC_NODE = 17.2888
ARG_OF_PERICENTER = 204.5799
MEAN_ANOMALY   = 155.5342

EPHEMERIS_TYPE = 0
CLASSIFICATION_TYPE = U
NORAD_CAT_ID   = 67234
ELEMENT_SET_NO = 999
REV_AT_EPOCH   = 195
BSTAR          = .12564798E-4
MEAN_MOTION_DOT = .36E-6
MEAN_MOTION_DDOT = 0

CCSDS_OMM_VERS = 2.0
CREATION_DATE  = 
ORIGINATOR     = 

OBJECT_NAME    = SL-4 R/B
OBJECT_ID      = 2025-310B
CENTER_NAME    = EARTH
REF_FRAME      = TEME
TIME_SYSTEM    = UTC
MEAN_ELEMENT_THEORY = SGP/SGP4

EPOCH          = 2026-01-11T06:44:27.865248
MEAN_MOTION    = 15.57161521
ECCENTRICITY   = .02750439
INCLINATION    = 97.9664
RA_OF_ASC_NODE = 22.6251
ARG_OF_PERICENTER = 16.4122
MEAN_ANOMALY   = 344.5818

EPHEMERIS_TYPE = 0
CLASSIFICATION_TYPE = U
NORAD_CAT_ID   = 67235
ELEMENT_SET_NO = 999
REV_AT_EPOCH   = 259
BSTAR          = .6539491E-3
MEAN_MOTION_DOT = .319195E-2
MEAN_MOTION_DDOT = .2370536E-5

CCSDS_OMM_VERS = 2.0
CREATION_DATE  = 
ORIGINATOR     = 

OBJECT_NAME    = HULIANWANG DIGUI-128
OBJECT_ID      = 2025-311A
CENTER_NAME    = EARTH
REF_FRAME      = TEME
TIME_SYSTEM    = UTC
MEAN_ELEMENT_THEORY = SGP/SGP4

EPOCH          = 2026-01-11T05:59:19.037760
MEAN_MOTION    = 13.90209807
ECCENTRICITY   = .00065481
INCLINATION    = 50.0103
RA_OF_ASC_NODE = 330.8889
ARG_OF_PERICENTER = 331.4624
MEAN_ANOMALY   = 28.5916

EPHEMERIS_TYPE = 0
CLASSIFICATION_TYPE = U
NORAD_CAT_ID   = 67236
ELEMENT_SET_NO = 999
REV_AT_EPOCH   = 227
BSTAR          = .12304168E-3
MEAN_MOTION_DOT = .7E-7
MEAN_MOTION_DDOT = 0

CCSDS_OMM_VERS = 2.0
CREATION_DATE  = 
ORIGINATOR     = 

OBJECT_NAME    = HULIANWANG DIGUI-129
OBJECT_ID      = 2025-311B
CENTER_NAME    = EARTH
REF_FRAME      = TEME
TIME_SYSTEM    = UTC
MEAN_ELEMENT_THEORY = SGP/SGP4

EPOCH          = 2026-01-11T06:00:59.031072
MEAN_MOTION    = 13.90166108
ECCENTRICITY   = .0007791
INCLINATION    = 50.0092
RA_OF_ASC_NODE = 330.8926
ARG_OF_PERICENTER = 333.0873
MEAN_ANOMALY   = 26.9620

EPHEMERIS_TYPE = 0
CLASSIFICATION_TYPE = U
NORAD_CAT_ID   = 67237
ELEMENT_SET_NO = 999
REV_AT_EPOCH   = 227
BSTAR          = .1135811E-3
MEAN_MOTION_DOT = -.5E-7
MEAN_MOTION_DDOT = 0

CCSDS_OMM_VERS = 2.0
CREATION_DATE  = 
ORIGINATOR     = 

OBJECT_NAME    = HULIANWANG DIGUI-130
OBJECT_ID      = 2025-311C
CENTER_NAME    = EARTH
REF_FRAME      = TEME
TIME_SYSTEM    = UTC
MEAN_ELEMENT_THEORY = SGP/SGP4

EPOCH          = 2026-01-11T06:10:45.941088
MEAN_MOTION    = 13.90217709
ECCENTRICITY   = .00077712
INCLINATION    = 50.0072
RA_OF_ASC_NODE = 330.9233
ARG_OF_PERICENTER = 310.3934
MEAN_ANOMALY   = 49.6285

EPHEMERIS_TYPE = 0
CLASSIFICATION_TYPE = U
NORAD_CAT_ID   = 67238
ELEMENT_SET_NO = 999
REV_AT_EPOCH   = 227
BSTAR          = .12820337E-3
MEAN_MOTION_DOT = .13E-6
MEAN_MOTION_DDOT = 0

CCSDS_OMM_VERS = 2.0
CREATION_DATE  = 
ORIGINATOR     = 

OBJECT_NAME    = HULIANWANG DIGUI-131
OBJECT_ID      = 2025-311D
CENTER_NAME    = EARTH
REF_FRAME      = TEME
TIME_SYSTEM    = UTC
MEAN_ELEMENT_THEORY = SGP/SGP4

EPOCH          = 2026-01-11T06:15:11.218464
MEAN_MOTION    = 13.90204730
ECCENTRICITY   = .00093698
INCLINATION    = 50.0068
RA_OF_ASC_NODE = 330.9381
ARG_OF_PERICENTER = 317.8971
MEAN_ANOMALY   = 42.1207

EPHEMERIS_TYPE = 0
CLASSIFICATION_TYPE = U
NORAD_CAT_ID   = 67239
ELEMENT_SET_NO = 999
REV_AT_EPOCH   = 227
BSTAR          = .12791622E-3
MEAN_MOTION_DOT = .13E-6
MEAN_MOTION_DDOT = 0

CCSDS_OMM_VERS = 2.0
CREATION_DATE  = 
ORIGINATOR     = 

OBJECT_NAME    = HULIANWANG DIGUI-132
OBJECT_ID      = 2025-311E
CENTER_NAME    = EARTH
REF_FRAME      = TEME
TIME_SYSTEM    = UTC
MEAN_ELEMENT_THEORY = SGP/SGP4

EPOCH          = 2026-01-11T04:22:52.429728
MEAN_MOTION    = 13.90230600
ECCENTRICITY   = .00084521
INCLINATION    = 50.0080
RA_OF_ASC_NODE = 331.1954
ARG_OF_PERICENTER = 324.2996
MEAN_ANOMALY   = 35.7337

EPHEMERIS_TYPE = 0
CLASSIFICATION_TYPE = U
NORAD_CAT_ID   = 67240
ELEMENT_SET_NO = 999
REV_AT_EPOCH   = 226
BSTAR          = .11526393E-3
MEAN_MOTION_DOT = -.3E-7
MEAN_MOTION_DDOT = 0

CCSDS_OMM_VERS = 2.0
CREATION_DATE  = 
ORIGINATOR     = 

OBJECT_NAME    = HULIANWANG DIGUI-133
OBJECT_ID      = 2025-311F
CENTER_NAME    = EARTH
REF_FRAME      = TEME
TIME_SYSTEM    = UTC
MEAN_ELEMENT_THEORY = SGP/SGP4

EPOCH          = 2026-01-11T07:47:11.209920
MEAN_MOTION    = 13.90208636
ECCENTRICITY   = .00075671
INCLINATION    = 50.0124
RA_OF_ASC_NODE = 330.6232
ARG_OF_PERICENTER = 328.8793
MEAN_ANOMALY   = 31.1657

EPHEMERIS_TYPE = 0
CLASSIFICATION_TYPE = U
NORAD_CAT_ID   = 67241
ELEMENT_SET_NO = 999
REV_AT_EPOCH   = 228
BSTAR          = .12477647E-3
MEAN_MOTION_DOT = .9E-7
MEAN_MOTION_DDOT = 0

